[{"OBJECT_NAME":"STARLINK-5408","OBJECT_ID":"2022-175BE","EPOCH":"2026-03-09T07:09:38.209824","MEAN_MOTION":15.08837616,"ECCENTRICITY":0.000175,"INCLINATION":53.219,"RA_OF_ASC_NODE":25.6449,"ARG_OF_PERICENTER":85.9227,"MEAN_ANOMALY":274.1965,"EPHEMERIS_TYPE":0,"CLASSIFICATION_TYPE":"U","NORAD_CAT_ID":54810,"ELEMENT_SET_NO":999,"REV_AT_EPOCH":18014,"BSTAR":6.452647e-6,"MEAN_MOTION_DOT":-1.85e-6,"MEAN_MOTION_DDOT":0},{"OBJECT_NAME":"NANOFF B","OBJECT_ID":"2023-185S","EPOCH":"2026-03-09T23:34:31.291104","MEAN_MOTION":15.11549361,"ECCENTRICITY":0.00109129,"INCLINATION":97.5361,"RA_OF_ASC_NODE":137.8575,"ARG_OF_PERICENTER":288.4201,"MEAN_ANOMALY":71.5842,"EPHEMERIS_TYPE":0,"CLASSIFICATION_TYPE":"U","NORAD_CAT_ID":58755,"ELEMENT_SET_NO":999,"REV_AT_EPOCH":11888,"BSTAR":0.00028764283,"MEAN_MOTION_DOT":4.819e-5,"MEAN_MOTION_DDOT":0}]
